ORBCOMM FM37            
1 33064U 08031E   25266.67234223  .00003579  00000+0  49437-3 0  9991
2 33064  48.4381 235.3245 0004808  73.9989  96.0751 14.80098980928638
ORBCOMM FM40            
1 33065U 08031F   25267.23459913  .00004909  00000+0  63149-3 0  9994
2 33065  48.4400 214.9981 0005935  93.5269  44.8673 14.82456281928854
VESSELSAT 1             
1 37840U 11058C   25267.99935724  .00000451  00000+0  10114-3 0  9996
2 37840  19.9610 209.9165 0013605 203.9083 156.0689 14.11372334720421
ORBCOMM FM109           
1 40086U 14040A   25267.73903198  .00001182  00000+0  28943-3 0  9999
2 40086  47.0027 266.0804 0000752  46.8212 313.2736 14.58317870595595
ORBCOMM FM107           
1 40087U 14040B   25267.69400064  .00001228  00000+0  29870-3 0  9990
2 40087  47.0044 267.2166 0001472 330.0637  30.0165 14.58400409595667
ORBCOMM FM106           
1 40088U 14040C   25267.76716337  .00002304  00000+0  41363-3 0  9999
2 40088  47.0601  80.9761 0016853 171.4388 188.6794 14.69676116598121
ORBCOMM FM111           
1 40089U 14040D   25267.75663230  .00006216  00000+0  70588-3 0  9999
2 40089  47.0003 277.6525 0030777 308.9938  50.8219 14.86874553605046
ORBCOMM FM104           
1 40090U 14040E   25267.51778112  .00001095  00000+0  27955-3 0  9991
2 40090  47.0056 302.8589 0017261 297.0922  62.8202 14.56789067595103
